[
  {
    "OBJECT_NAME": "STARLINK-30939",
    "OBJECT_ID": "2023-178V",
    "EPOCH": "2025-05-10T20:15:55.447200",
    "MEAN_MOTION": 15.30188314,
    "ECCENTRICITY": 8.39e-05,
    "INCLINATION": 53.1602,
    "RA_OF_ASC_NODE": 327.8156,
    "ARG_OF_PERICENTER": 98.9428,
    "MEAN_ANOMALY": 261.1668,
    "EPHEMERIS_TYPE": 0,
    "CLASSIFICATION_TYPE": "U",
    "NORAD_CAT_ID": 58393,
    "ELEMENT_SET_NO": 999,
    "REV_AT_EPOCH": 8335,
    "BSTAR": 8.1603e-05,
    "MEAN_MOTION_DOT": 2.058e-05,
    "MEAN_MOTION_DDOT": 0
  },
  {
    "OBJECT_NAME": "STARLINK-30887",
    "OBJECT_ID": "2023-178W",
    "EPOCH": "2025-05-10T07:01:03.846432",
    "MEAN_MOTION": 15.30208771,
    "ECCENTRICITY": 0.0001411,
    "INCLINATION": 53.1607,
    "RA_OF_ASC_NODE": 330.5955,
    "ARG_OF_PERICENTER": 85.2236,
    "MEAN_ANOMALY": 274.8926,
    "EPHEMERIS_TYPE": 0,
    "CLASSIFICATION_TYPE": "U",
    "NORAD_CAT_ID": 58394,
    "ELEMENT_SET_NO": 999,
    "REV_AT_EPOCH": 8341,
    "BSTAR": -5.734e-05,
    "MEAN_MOTION_DOT": -2.058e-05,
    "MEAN_MOTION_DDOT": 0
  },
  {
    "OBJECT_NAME": "STARLINK-30934",
    "OBJECT_ID": "2023-178X",
    "EPOCH": "2025-05-10T06:27:42.119136",
    "MEAN_MOTION": 15.30191023,
    "ECCENTRICITY": 0.0001258,
    "INCLINATION": 53.1617,
    "RA_OF_ASC_NODE": 330.6975,
    "ARG_OF_PERICENTER": 95.0531,
    "MEAN_ANOMALY": 265.0614,
    "EPHEMERIS_TYPE": 0,
    "CLASSIFICATION_TYPE": "U",
    "NORAD_CAT_ID": 58395,
    "ELEMENT_SET_NO": 999,
    "REV_AT_EPOCH": 8336,
    "BSTAR": 1.3974e-05,
    "MEAN_MOTION_DOT": 5.5e-07,
    "MEAN_MOTION_DDOT": 0
  },
  {
    "OBJECT_NAME": "STARLINK-30964",
    "OBJECT_ID": "2023-180A",
    "EPOCH": "2025-05-10T09:14:14.993664",
    "MEAN_MOTION": 15.02537788,
    "ECCENTRICITY": 0.0001535,
    "INCLINATION": 43.0028,
    "RA_OF_ASC_NODE": 263.8043,
    "ARG_OF_PERICENTER": 265.6924,
    "MEAN_ANOMALY": 94.3743,
    "EPHEMERIS_TYPE": 0,
    "CLASSIFICATION_TYPE": "U",
    "NORAD_CAT_ID": 58402,
    "ELEMENT_SET_NO": 999,
    "REV_AT_EPOCH": 8196,
    "BSTAR": 8.9356e-05,
    "MEAN_MOTION_DOT": 1.004e-05,
    "MEAN_MOTION_DDOT": 0
  },
  {
    "OBJECT_NAME": "STARLINK-30844",
    "OBJECT_ID": "2023-180B",
    "EPOCH": "2025-05-10T10:35:45.762432",
    "MEAN_MOTION": 15.02539313,
    "ECCENTRICITY": 0.0001322,
    "INCLINATION": 43.0006,
    "RA_OF_ASC_NODE": 264.2266,
    "ARG_OF_PERICENTER": 254.7908,
    "MEAN_ANOMALY": 105.2788,
    "EPHEMERIS_TYPE": 0,
    "CLASSIFICATION_TYPE": "U",
    "NORAD_CAT_ID": 58403,
    "ELEMENT_SET_NO": 999,
    "REV_AT_EPOCH": 8185,
    "BSTAR": 0.00015608,
    "MEAN_MOTION_DOT": 1.906e-05,
    "MEAN_MOTION_DDOT": 0
  },
  {
    "OBJECT_NAME": "STARLINK-30876",
    "OBJECT_ID": "2023-180C",
    "EPOCH": "2025-05-10T08:55:14.711520",
    "MEAN_MOTION": 15.02535299,
    "ECCENTRICITY": 0.0001475,
    "INCLINATION": 43.004,
    "RA_OF_ASC_NODE": 264.5657,
    "ARG_OF_PERICENTER": 271.4821,
    "MEAN_ANOMALY": 88.5853,
    "EPHEMERIS_TYPE": 0,
    "CLASSIFICATION_TYPE": "U",
    "NORAD_CAT_ID": 58404,
    "ELEMENT_SET_NO": 999,
    "REV_AT_EPOCH": 8195,
    "BSTAR": 1.2156e-05,
    "MEAN_MOTION_DOT": -3.9e-07,
    "MEAN_MOTION_DDOT": 0
  },
  {
    "OBJECT_NAME": "STARLINK-30952",
    "OBJECT_ID": "2023-180D",
    "EPOCH": "2025-05-10T15:13:21.996768",
    "MEAN_MOTION": 15.0252957,
    "ECCENTRICITY": 6.3e-05,
    "INCLINATION": 43,
    "RA_OF_ASC_NODE": 263.0921,
    "ARG_OF_PERICENTER": 240.4891,
    "MEAN_ANOMALY": 119.5889,
    "EPHEMERIS_TYPE": 0,
    "CLASSIFICATION_TYPE": "U",
    "NORAD_CAT_ID": 58405,
    "ELEMENT_SET_NO": 999,
    "REV_AT_EPOCH": 8188,
    "BSTAR": 1.575e-05,
    "MEAN_MOTION_DOT": 9e-08,
    "MEAN_MOTION_DDOT": 0
  },
  {
    "OBJECT_NAME": "STARLINK-30925",
    "OBJECT_ID": "2023-180E",
    "EPOCH": "2025-05-10T19:55:43.899744",
    "MEAN_MOTION": 15.025443,
    "ECCENTRICITY": 0.0001273,
    "INCLINATION": 43.0031,
    "RA_OF_ASC_NODE": 261.9843,
    "ARG_OF_PERICENTER": 270.5702,
    "MEAN_ANOMALY": 89.4995,
    "EPHEMERIS_TYPE": 0,
    "CLASSIFICATION_TYPE": "U",
    "NORAD_CAT_ID": 58406,
    "ELEMENT_SET_NO": 999,
    "REV_AT_EPOCH": 8193,
    "BSTAR": -0.00014516,
    "MEAN_MOTION_DOT": -2.164e-05,
    "MEAN_MOTION_DDOT": 0
  },
  {
    "OBJECT_NAME": "STARLINK-30954",
    "OBJECT_ID": "2023-180F",
    "EPOCH": "2025-05-10T17:08:06.058464",
    "MEAN_MOTION": 15.02549459,
    "ECCENTRICITY": 0.0001725,
    "INCLINATION": 43.0034,
    "RA_OF_ASC_NODE": 261.9734,
    "ARG_OF_PERICENTER": 280.6417,
    "MEAN_ANOMALY": 79.4231,
    "EPHEMERIS_TYPE": 0,
    "CLASSIFICATION_TYPE": "U",
    "NORAD_CAT_ID": 58407,
    "ELEMENT_SET_NO": 999,
    "REV_AT_EPOCH": 8202,
    "BSTAR": 0.00025553,
    "MEAN_MOTION_DOT": 3.251e-05,
    "MEAN_MOTION_DDOT": 0
  },
  {
    "OBJECT_NAME": "STARLINK-30906",
    "OBJECT_ID": "2023-180G",
    "EPOCH": "2025-05-10T09:19:11.684352",
    "MEAN_MOTION": 15.02527851,
    "ECCENTRICITY": 0.0001438,
    "INCLINATION": 43.0035,
    "RA_OF_ASC_NODE": 264.5245,
    "ARG_OF_PERICENTER": 272.6425,
    "MEAN_ANOMALY": 87.4253,
    "EPHEMERIS_TYPE": 0,
    "CLASSIFICATION_TYPE": "U",
    "NORAD_CAT_ID": 58408,
    "ELEMENT_SET_NO": 999,
    "REV_AT_EPOCH": 8184,
    "BSTAR": 0.00018951,
    "MEAN_MOTION_DOT": 2.357e-05,
    "MEAN_MOTION_DDOT": 0
  },
  {
    "OBJECT_NAME": "STARLINK-30940",
    "OBJECT_ID": "2023-180H",
    "EPOCH": "2025-05-10T19:24:48.837312",
    "MEAN_MOTION": 15.25915073,
    "ECCENTRICITY": 8.93e-05,
    "INCLINATION": 42.9985,
    "RA_OF_ASC_NODE": 175.0661,
    "ARG_OF_PERICENTER": 270.278,
    "MEAN_ANOMALY": 89.7969,
    "EPHEMERIS_TYPE": 0,
    "CLASSIFICATION_TYPE": "U",
    "NORAD_CAT_ID": 58409,
    "ELEMENT_SET_NO": 999,
    "REV_AT_EPOCH": 8305,
    "BSTAR": -0.00012103,
    "MEAN_MOTION_DOT": -3.422e-05,
    "MEAN_MOTION_DDOT": 0
  },
  {
    "OBJECT_NAME": "STARLINK-30933",
    "OBJECT_ID": "2023-180J",
    "EPOCH": "2025-05-10T09:56:23.676288",
    "MEAN_MOTION": 15.25903323,
    "ECCENTRICITY": 0.0001444,
    "INCLINATION": 43.0014,
    "RA_OF_ASC_NODE": 178.9843,
    "ARG_OF_PERICENTER": 269.2793,
    "MEAN_ANOMALY": 90.7893,
    "EPHEMERIS_TYPE": 0,
    "CLASSIFICATION_TYPE": "U",
    "NORAD_CAT_ID": 58410,
    "ELEMENT_SET_NO": 999,
    "REV_AT_EPOCH": 8296,
    "BSTAR": -3.5728e-06,
    "MEAN_MOTION_DOT": -3.51e-06,
    "MEAN_MOTION_DDOT": 0
  },
  {
    "OBJECT_NAME": "STARLINK-30919",
    "OBJECT_ID": "2023-180K",
    "EPOCH": "2025-05-10T20:36:45.936000",
    "MEAN_MOTION": 15.02540512,
    "ECCENTRICITY": 0.000123,
    "INCLINATION": 43.002,
    "RA_OF_ASC_NODE": 260.4127,
    "ARG_OF_PERICENTER": 265.2705,
    "MEAN_ANOMALY": 94.7997,
    "EPHEMERIS_TYPE": 0,
    "CLASSIFICATION_TYPE": "U",
    "NORAD_CAT_ID": 58411,
    "ELEMENT_SET_NO": 999,
    "REV_AT_EPOCH": 8196,
    "BSTAR": 0.00011338,
    "MEAN_MOTION_DOT": 1.328e-05,
    "MEAN_MOTION_DDOT": 0
  },
  {
    "OBJECT_NAME": "STARLINK-30924",
    "OBJECT_ID": "2023-180L",
    "EPOCH": "2025-05-10T09:53:07.946592",
    "MEAN_MOTION": 15.25907329,
    "ECCENTRICITY": 0.000104,
    "INCLINATION": 43.0013,
    "RA_OF_ASC_NODE": 178.9564,
    "ARG_OF_PERICENTER": 273.4945,
    "MEAN_ANOMALY": 86.5787,
    "EPHEMERIS_TYPE": 0,
    "CLASSIFICATION_TYPE": "U",
    "NORAD_CAT_ID": 58412,
    "ELEMENT_SET_NO": 999,
    "REV_AT_EPOCH": 8296,
    "BSTAR": 3.5966e-05,
    "MEAN_MOTION_DOT": 6.83e-06,
    "MEAN_MOTION_DDOT": 0
  },
  {
    "OBJECT_NAME": "STARLINK-30931",
    "OBJECT_ID": "2023-180M",
    "EPOCH": "2025-05-10T08:58:50.206944",
    "MEAN_MOTION": 15.02537951,
    "ECCENTRICITY": 0.0001324,
    "INCLINATION": 43.004,
    "RA_OF_ASC_NODE": 251.7278,
    "ARG_OF_PERICENTER": 271.7592,
    "MEAN_ANOMALY": 88.3099,
    "EPHEMERIS_TYPE": 0,
    "CLASSIFICATION_TYPE": "U",
    "NORAD_CAT_ID": 58413,
    "ELEMENT_SET_NO": 999,
    "REV_AT_EPOCH": 8210,
    "BSTAR": 2.1763e-05,
    "MEAN_MOTION_DOT": 9e-07,
    "MEAN_MOTION_DDOT": 0
  },
  {
    "OBJECT_NAME": "STARLINK-30922",
    "OBJECT_ID": "2023-180N",
    "EPOCH": "2025-05-10T19:26:59.479296",
    "MEAN_MOTION": 15.02538436,
    "ECCENTRICITY": 0.0001029,
    "INCLINATION": 43.0021,
    "RA_OF_ASC_NODE": 261.8237,
    "ARG_OF_PERICENTER": 280.3575,
    "MEAN_ANOMALY": 79.7151,
    "EPHEMERIS_TYPE": 0,
    "CLASSIFICATION_TYPE": "U",
    "NORAD_CAT_ID": 58414,
    "ELEMENT_SET_NO": 999,
    "REV_AT_EPOCH": 8203,
    "BSTAR": 8.6491e-05,
    "MEAN_MOTION_DOT": 9.65e-06,
    "MEAN_MOTION_DDOT": 0
  },
  {
    "OBJECT_NAME": "STARLINK-30949",
    "OBJECT_ID": "2023-180P",
    "EPOCH": "2025-05-10T16:20:21.164064",
    "MEAN_MOTION": 15.02515779,
    "ECCENTRICITY": 0.0001137,
    "INCLINATION": 43.0022,
    "RA_OF_ASC_NODE": 262.5584,
    "ARG_OF_PERICENTER": 269.2546,
    "MEAN_ANOMALY": 90.8166,
    "EPHEMERIS_TYPE": 0,
    "CLASSIFICATION_TYPE": "U",
    "NORAD_CAT_ID": 58415,
    "ELEMENT_SET_NO": 999,
    "REV_AT_EPOCH": 8201,
    "BSTAR": -0.00010589,
    "MEAN_MOTION_DOT": -1.633e-05,
    "MEAN_MOTION_DDOT": 0
  },
  {
    "OBJECT_NAME": "STARLINK-30967",
    "OBJECT_ID": "2023-180Q",
    "EPOCH": "2025-05-10T19:36:34.085952",
    "MEAN_MOTION": 15.02535034,
    "ECCENTRICITY": 0.0001481,
    "INCLINATION": 43.0039,
    "RA_OF_ASC_NODE": 261.8723,
    "ARG_OF_PERICENTER": 264.2708,
    "MEAN_ANOMALY": 95.7965,
    "EPHEMERIS_TYPE": 0,
    "CLASSIFICATION_TYPE": "U",
    "NORAD_CAT_ID": 58416,
    "ELEMENT_SET_NO": 999,
    "REV_AT_EPOCH": 8202,
    "BSTAR": -4.9324e-06,
    "MEAN_MOTION_DOT": -2.7e-06,
    "MEAN_MOTION_DDOT": 0
  }
]